HST                     
1 20580U 90037B   26153.34296606  .00005773  00000+0  18209-3 0  9991
2 20580  28.4711 182.0162 0001700 354.7953   5.2625 15.30586461786295
POLAR                   
1 23802U 96013A   26154.17285880  .00000117  00000+0  00000+0 0  9998
2 23802  79.8387 227.2170 6456542 209.5637  88.9587  1.29846107144679
SWAS                    
1 25560U 98071A   26155.16083387  .00004979  00000+0  31583-3 0  9999
2 25560  69.8968 261.1086 0008692 272.1435  87.8734 15.09531404495309
CXO                     
1 25867U 99040B   26156.15341265  .00000679  00000+0  00000+0 0  9997
2 25867  55.9514 117.0331 7855937 310.2940   0.1967  0.37796078 17275
XMM-NEWTON              
1 25989U 99066A   26153.38988298  .00000054  00000+0  00000+0 0  9992
2 25989  64.5660 283.1750 4678287  65.1499   0.1702  0.50127783 22933
TERRA                   
1 25994U 99068A   26155.14712492  .00000498  00000+0  11028-3 0  9995
2 25994  97.9462 205.2097 0000811 264.5270 179.3894 14.61092589407703
CLUSTER II-FM7 (SAMBA)  
1 26410U 00041A   26156.98399886  .00004453  00000+0  00000+0 0  9992
2 26410 149.8917  48.5803 9040965 265.6480   0.0292  0.44829937 20254
CLUSTER II-FM8 (TANGO)  
1 26464U 00045B   26150.42970564  .00004404  00000+0  00000+0 0  9992
2 26464 150.1271  48.5941 9036059 265.4393   3.5087  0.44418197 20234
ODIN                    
1 26702U 01007A   26155.18611878  .00162235  00000+0  12424-2 0  9997
2 26702  97.3862 195.3329 0006368 160.3716 199.7793 15.71608948387353
TIMED                   
1 26998U 01055B   26154.62706029  .00001612  00000+0  15003-3 0  9996
2 26998  74.0681 262.3202 0000349  13.3633 346.7560 14.95260030328794
CORIOLIS                
1 27640U 03001A   26155.09066795  .00000099  00000+0  66958-4 0  9999
2 27640  98.7126 162.1754 0012865 249.0733 110.9067 14.19941104212362
SORCE                   
1 27651U 03004A   26154.92285899  .00003252  00000+0  24356-3 0  9992
2 27651  39.9921 337.3518 0018429 313.8415  46.0856 15.03637583269901
MOST                    
1 27843U 03031D   26154.97668808  .00000075  00000+0  54461-4 0  9996
2 27843  98.7043 162.8868 0008771 293.5336  66.4920 14.21319662188830
SCISAT 1                
1 27858U 03036A   26154.58458824  .00000644  00000+0  86885-4 0  9996
2 27858  73.9292 198.3690 0008712 266.8660  93.1520 14.81433322229433
SWIFT                   
1 28485U 04047A   26151.76835454  .00063707  00000+0  56852-3 0  9990
2 28485  20.5544 311.3972 0003289  74.7681 285.3128 15.66645040184289
HINODE (SOLAR-B)        
1 29479U 06041A   26155.03585488  .00000851  00000+0  15465-3 0  9999
2 29479  98.0548 171.3823 0016716 334.4034  25.6342 14.68603378 52942
SHIJIAN-6 02A (SJ-6 02A)
1 29505U 06046A   26155.16201177  .00005620  00000+0  28965-3 0  9996
2 29505  97.6362 196.1314 0003474 154.7855 205.3548 15.16784206 70299
SHIJIAN-6 02B (SJ-6 02B)
1 29506U 06046B   26155.15007226  .00001610  00000+0  12952-3 0  9999
2 29506  97.7155 184.2890 0014265  98.7555 261.5286 15.01341330 68787
FGRST (GLAST)           
1 33053U 08029A   26154.80528131  .00004081  00000+0  15062-3 0  9998
2 33053  25.5832 297.3955 0008323 165.4583 194.6195 15.23873209993791
SDO                     
1 36395U 10005A   26154.33278793 -.00000074  00000+0  00000+0 0  9992
2 36395  34.6232  86.5527 0001321  44.7554 138.3260  1.00271499 59928
CRYOSAT 2               
1 36508U 10013A   26155.19341554  .00000167  00000+0  40695-4 0  9999
2 36508  92.0346 274.1441 0002281  85.4496 274.6972 14.51895388856198
X-SAT                   
1 37389U 11015C   26155.16731806  .00000007  00000+0  20446-4 0  9995
2 37389  98.3505 132.8116 0014760  25.8317 334.3597 14.25201806785821
GCOM-W1 (SHIZUKU)       
1 38337U 12025A   26154.44624095  .00000562  00000+0  13479-3 0  9995
2 38337  98.2019  95.2103 0001854  85.6987  27.7042 14.57110883747037
NUSTAR                  
1 38358U 12031A   26155.16670139  .00008174  00000+0  45249-3 0  9992
2 38358   6.0246 131.7827 0008798 272.9745 181.7733 15.08670986  1308
NEOSSAT                 
1 39089U 13009D   26155.03874677  .00000141  00000+0  63617-4 0  9995
2 39089  98.4175 335.3845 0009833 287.8509  72.1604 14.35821663694859
BRITE-AUSTRIA           
1 39091U 13009F   26155.04391102  .00000216  00000+0  88188-4 0  9999
2 39091  98.3993 334.8055 0008968 280.8845  79.1332 14.36536752695163
IRIS                    
1 39197U 13033A   26155.03328219  .00001148  00000+0  13761-3 0  9990
2 39197  97.9336 354.3515 0024561   5.6073 354.5412 14.85857262698424
HISAKI (SPRINT-A)       
1 39253U 13049A   26152.44124326  .00000151  00000+0  11299-3 0  9992
2 39253  29.7215 300.0649 0136907 249.2755 109.3095 13.55542806629285
CASSIOPE                
1 39265U 13055A   26155.10145954  .00042676 -55731-6  47326-3 0  9995
2 39265  80.9147  82.5959 0297024 106.2984 257.1134 15.24017002665673
STSAT-3                 
1 39422U 13066G   26155.19476272  .00004762  00000+0  36099-3 0  9991
2 39422  97.6209 125.2939 0010778  79.1382 281.1056 15.02673826682255
SWARM B                 
1 39451U 13067A   26155.17104176  .00003627  00000+0  12974-3 0  9998
2 39451  87.7438 346.2720 0003406  93.7581 266.4057 15.28469020681250
